[{"OBJECT_NAME":"STARLINK-3770","OBJECT_ID":"2022-051X","EPOCH":"2026-03-09T10:37:40.550016","MEAN_MOTION":15.08836721,"ECCENTRICITY":0.00014649,"INCLINATION":53.2176,"RA_OF_ASC_NODE":135.2298,"ARG_OF_PERICENTER":91.0756,"MEAN_ANOMALY":269.0404,"EPHEMERIS_TYPE":0,"CLASSIFICATION_TYPE":"U","NORAD_CAT_ID":52554,"ELEMENT_SET_NO":999,"REV_AT_EPOCH":21133,"BSTAR":1.6421357e-5,"MEAN_MOTION_DOT":-2.7e-7,"MEAN_MOTION_DDOT":0},{"OBJECT_NAME":"JILIN-01 KUANFU 02B 6","OBJECT_ID":"2024-169F","EPOCH":"2026-03-09T21:43:38.712288","MEAN_MOTION":15.09238946,"ECCENTRICITY":0.00150747,"INCLINATION":97.5549,"RA_OF_ASC_NODE":159.9459,"ARG_OF_PERICENTER":324.4254,"MEAN_ANOMALY":35.5968,"EPHEMERIS_TYPE":0,"CLASSIFICATION_TYPE":"U","NORAD_CAT_ID":61194,"ELEMENT_SET_NO":999,"REV_AT_EPOCH":8086,"BSTAR":0.00036442477,"MEAN_MOTION_DOT":5.751e-5,"MEAN_MOTION_DDOT":0}]
